{
    "links": {
        "self": "http://www.neowsapp.com/rest/v1/neo/3971132?api_key=iIulBulltgU6a56xZRHN4H3l9WmuAYTsLGpBGhQ2"
    },
    "id": "3971132",
    "neo_reference_id": "3971132",
    "name": "(2019 YA6)",
    "designation": "2019 YA6",
    "nasa_jpl_url": "http://ssd.jpl.nasa.gov/sbdb.cgi?sstr=3971132",
    "absolute_magnitude_h": 24.1,
    "estimated_diameter": {
        "kilometers": {
            "estimated_diameter_min": 0.040230458,
            "estimated_diameter_max": 0.0899580388
        },
        "meters": {
            "estimated_diameter_min": 40.2304579834,
            "estimated_diameter_max": 89.9580388169
        },
        "miles": {
            "estimated_diameter_min": 0.0249980399,
            "estimated_diameter_max": 0.0558973165
        },
        "feet": {
            "estimated_diameter_min": 131.9896957704,
            "estimated_diameter_max": 295.1379320721
        }
    },
    "is_potentially_hazardous_asteroid": false,
    "close_approach_data": [
        {
            "close_approach_date": "2019-12-26",
            "close_approach_date_full": "2019-Dec-26 18:40",
            "epoch_date_close_approach": 1577385600000,
            "relative_velocity": {
                "kilometers_per_second": "18.853686691",
                "kilometers_per_hour": "67873.2720875132",
                "miles_per_hour": "42173.811759044"
            },
            "miss_distance": {
                "astronomical": "0.094207277",
                "lunar": "36.646630753",
                "kilometers": "14093207.97769999",
                "miles": "8757113.364600262"
            },
            "orbiting_body": "Earth"
        }
    ],
    "orbital_data": {
        "orbit_id": "4",
        "orbit_determination_date": "2020-01-12 04:54:14",
        "first_observation_date": "2019-12-31",
        "last_observation_date": "2020-01-04",
        "data_arc_in_days": 4,
        "observations_used": 32,
        "orbit_uncertainty": "9",
        "minimum_orbit_intersection": ".0937062",
        "jupiter_tisserand_invariant": "3.064",
        "epoch_osculation": "2458849.5",
        "eccentricity": ".5689986845577473",
        "semi_major_axis": "2.484806028303885",
        "inclination": "31.3845082574946",
        "ascending_node_longitude": "275.0745459094226",
        "orbital_period": "1430.66240497492",
        "perihelion_distance": "1.070954666817814",
        "perihelion_argument": "169.1083880377213",
        "aphelion_distance": "3.898657389789957",
        "perihelion_time": "2458835.706407006009",
        "mean_anomaly": "3.470905127980776",
        "mean_motion": ".2516316908504427",
        "equinox": "J2000",
        "orbit_class": {
            "orbit_class_type": "AMO",
            "orbit_class_description": "Near-Earth asteroid orbits similar to that of 1221 Amor",
            "orbit_class_range": "1.017 AU < q (perihelion) < 1.3 AU"
        }
    },
    "is_sentry_object": false
}